{
    "links": {
        "self": "http://www.neowsapp.com/rest/v1/neo/3831737?api_key=iIulBulltgU6a56xZRHN4H3l9WmuAYTsLGpBGhQ2"
    },
    "id": "3831737",
    "neo_reference_id": "3831737",
    "name": "(2018 TE5)",
    "designation": "2018 TE5",
    "nasa_jpl_url": "http://ssd.jpl.nasa.gov/sbdb.cgi?sstr=3831737",
    "absolute_magnitude_h": 25.1,
    "estimated_diameter": {
        "kilometers": {
            "estimated_diameter_min": 0.0253837029,
            "estimated_diameter_max": 0.0567596853
        },
        "meters": {
            "estimated_diameter_min": 25.3837029364,
            "estimated_diameter_max": 56.7596852866
        },
        "miles": {
            "estimated_diameter_min": 0.0157726969,
            "estimated_diameter_max": 0.0352688224
        },
        "feet": {
            "estimated_diameter_min": 83.279867942,
            "estimated_diameter_max": 186.2194458756
        }
    },
    "is_potentially_hazardous_asteroid": false,
    "close_approach_data": [
        {
            "close_approach_date": "2014-09-15",
            "close_approach_date_full": "2014-Sep-15 03:04",
            "epoch_date_close_approach": 1410750240000,
            "relative_velocity": {
                "kilometers_per_second": "17.3244190326",
                "kilometers_per_hour": "62367.9085174633",
                "miles_per_hour": "38752.9929340871"
            },
            "miss_distance": {
                "astronomical": "0.4631323024",
                "lunar": "180.1584656336",
                "kilometers": "69283605.967235888",
                "miles": "43050836.4542277344"
            },
            "orbiting_body": "Earth"
        },
        {
            "close_approach_date": "2016-09-28",
            "close_approach_date_full": "2016-Sep-28 22:27",
            "epoch_date_close_approach": 1475101620000,
            "relative_velocity": {
                "kilometers_per_second": "11.3121960165",
                "kilometers_per_hour": "40723.905659436",
                "miles_per_hour": "25304.2512693312"
            },
            "miss_distance": {
                "astronomical": "0.2479911742",
                "lunar": "96.4685667638",
                "kilometers": "37098951.439118954",
                "miles": "23052219.4786474052"
            },
            "orbiting_body": "Earth"
        },
        {
            "close_approach_date": "2018-10-18",
            "close_approach_date_full": "2018-Oct-18 20:51",
            "epoch_date_close_approach": 1539895860000,
            "relative_velocity": {
                "kilometers_per_second": "6.658171575",
                "kilometers_per_hour": "23969.4176699271",
                "miles_per_hour": "14893.6639960722"
            },
            "miss_distance": {
                "astronomical": "0.0621822115",
                "lunar": "24.1888802735",
                "kilometers": "9302326.392289505",
                "miles": "5780197.588844969"
            },
            "orbiting_body": "Earth"
        },
        {
            "close_approach_date": "2020-11-11",
            "close_approach_date_full": "2020-Nov-11 04:43",
            "epoch_date_close_approach": 1605069780000,
            "relative_velocity": {
                "kilometers_per_second": "8.4443714989",
                "kilometers_per_hour": "30399.7373962104",
                "miles_per_hour": "18889.2146059953"
            },
            "miss_distance": {
                "astronomical": "0.1878535892",
                "lunar": "73.0750461988",
                "kilometers": "28102496.816175004",
                "miles": "17462081.7940788952"
            },
            "orbiting_body": "Earth"
        },
        {
            "close_approach_date": "2022-11-30",
            "close_approach_date_full": "2022-Nov-30 03:11",
            "epoch_date_close_approach": 1669777860000,
            "relative_velocity": {
                "kilometers_per_second": "14.358128739",
                "kilometers_per_hour": "51689.2634604547",
                "miles_per_hour": "32117.6981763031"
            },
            "miss_distance": {
                "astronomical": "0.3927081188",
                "lunar": "152.7634582132",
                "kilometers": "58748298.104186956",
                "miles": "36504499.7057977528"
            },
            "orbiting_body": "Earth"
        }
    ],
    "orbital_data": {
        "orbit_id": "5",
        "orbit_determination_date": "2018-11-10 06:28:05",
        "first_observation_date": "2018-10-10",
        "last_observation_date": "2018-11-09",
        "data_arc_in_days": 30,
        "observations_used": 29,
        "orbit_uncertainty": "7",
        "minimum_orbit_intersection": ".0591499",
        "jupiter_tisserand_invariant": "4.271",
        "epoch_osculation": "2459000.5",
        "eccentricity": ".3466741607035794",
        "semi_major_axis": "1.604490236477158",
        "inclination": "9.359583631217838",
        "ascending_node_longitude": "23.85896586243482",
        "orbital_period": "742.3420210181085",
        "perihelion_distance": "1.048254930389351",
        "perihelion_argument": "14.55438398400509",
        "aphelion_distance": "2.160725542564964",
        "perihelion_time": "2459163.751023933234",
        "mean_anomaly": "280.8311439309852",
        "mean_motion": ".4849516662228908",
        "equinox": "J2000",
        "orbit_class": {
            "orbit_class_type": "AMO",
            "orbit_class_description": "Near-Earth asteroid orbits similar to that of 1221 Amor",
            "orbit_class_range": "1.017 AU < q (perihelion) < 1.3 AU"
        }
    },
    "is_sentry_object": false
}